[{"OBJECT_NAME":"STARLINK-31704","OBJECT_ID":"2024-076Y","EPOCH":"2026-03-09T22:00:01.999584","MEAN_MOTION":15.30892355,"ECCENTRICITY":0.00079744,"INCLINATION":42.9978,"RA_OF_ASC_NODE":323.2923,"ARG_OF_PERICENTER":240.5046,"MEAN_ANOMALY":200.4144,"EPHEMERIS_TYPE":0,"CLASSIFICATION_TYPE":"U","NORAD_CAT_ID":59586,"ELEMENT_SET_NO":999,"REV_AT_EPOCH":581,"BSTAR":0.0024766131,"MEAN_MOTION_DOT":0.00076042,"MEAN_MOTION_DDOT":0},{"OBJECT_NAME":"STARLINK-34530","OBJECT_ID":"2025-133V","EPOCH":"2026-03-09T09:37:44.327136","MEAN_MOTION":15.3020525,"ECCENTRICITY":0.00012923,"INCLINATION":53.1589,"RA_OF_ASC_NODE":118.1746,"ARG_OF_PERICENTER":142.0568,"MEAN_ANOMALY":218.0524,"EPHEMERIS_TYPE":0,"CLASSIFICATION_TYPE":"U","NORAD_CAT_ID":64491,"ELEMENT_SET_NO":999,"REV_AT_EPOCH":4112,"BSTAR":0.00067541763,"MEAN_MOTION_DOT":0.00019701,"MEAN_MOTION_DDOT":0}]
